[{"OBJECT_NAME":"STARLINK-2356","OBJECT_ID":"2021-021AN","EPOCH":"2026-03-09T20:36:38.859840","MEAN_MOTION":15.30186543,"ECCENTRICITY":0.00011076,"INCLINATION":53.159,"RA_OF_ASC_NODE":280.2025,"ARG_OF_PERICENTER":103.5872,"MEAN_ANOMALY":256.5252,"EPHEMERIS_TYPE":0,"CLASSIFICATION_TYPE":"U","NORAD_CAT_ID":47896,"ELEMENT_SET_NO":999,"REV_AT_EPOCH":27604,"BSTAR":0.0001012518,"MEAN_MOTION_DOT":2.64e-5,"MEAN_MOTION_DDOT":0},{"OBJECT_NAME":"NOAA 17 DEB","OBJECT_ID":"2002-032DK","EPOCH":"2026-03-06T06:53:22.349472","MEAN_MOTION":15.29547844,"ECCENTRICITY":0.00135803,"INCLINATION":98.6735,"RA_OF_ASC_NODE":77.6727,"ARG_OF_PERICENTER":131.2945,"MEAN_ANOMALY":228.9463,"EPHEMERIS_TYPE":0,"CLASSIFICATION_TYPE":"U","NORAD_CAT_ID":49481,"ELEMENT_SET_NO":999,"REV_AT_EPOCH":24998,"BSTAR":0.011623019,"MEAN_MOTION_DOT":0.00349096,"MEAN_MOTION_DDOT":0}]
